ITAMSAT (IO-26)         
1 22826U 93061D   26091.15526516  .00000170  00000+0  81031-4 0  9992
2 22826  98.6885 158.4871 0007982 315.1028  44.9508 14.31345428696293
USA 99 (MILSTAR-1 1)    
1 22988U 94009A   26091.14017439 -.00000204  00000+0  00000+0 0  9993
2 22988  17.5042  28.5409 0004045 330.8980 150.5466  1.00273148 32189
RADIO ROSTO (RS15)      
1 23439U 94085A   26091.22255017 -.00000050  00000+0 -20733-3 0  9993
2 23439  64.8159  67.6864 0153524  17.8427 342.7806 11.27583791287227
UFO 4 (USA 108)         
1 23467U 95003A   26090.62544796 -.00000030  00000+0  00000+0 0  9991
2 23467   9.6936  13.4832 0003490 351.3784 221.7084  1.00268648114178
TDRS 7                  
1 23613U 95035B   26090.80308350 -.00000247  00000+0  00000+0 0  9993
2 23613  13.4097 348.7212 0009264  54.7626 163.8330  1.00269293112470
USA 115 (MILSTAR-1 2)   
1 23712U 95060A   26091.12739840 -.00000028  00000+0  00000+0 0  9996
2 23712  14.0462   4.3226 0003960 355.7308 115.3247  1.00275441 32114
POLAR                   
1 23802U 96013A   26090.24444198  .00000072  00000+0  00000+0 0  9994
2 23802  79.7777 227.9483 6391582 211.7339  85.2867  1.29845737143848
INMARSAT 3-F1           
1 23839U 96020A   26090.60771414 -.00000186  00000+0  00000+0 0  9993
2 23839  10.4417  47.3349 0004870 299.6498  44.3923  1.00000806109471
USA 119                 
1 23893U 96029A   26091.15181950  .00003923  00000+0  65295-3 0  9995
2 23893  63.3228  33.6589 0847362  47.9918 319.0165 13.45999063 94909
JAS-2 (FO-29)           
1 24278U 96046B   26091.12212914  .00000005  00000+0  43908-4 0  9990
2 24278  98.5343 310.5037 0348970 296.5027  60.0722 13.53270136462749
INMARSAT 3-F2           
1 24307U 96053A   26090.50253142  .00000088  00000+0  00000+0 0  9992
2 24307   9.6826  54.7124 0006374 320.5818 220.7275  0.99983267108141
INMARSAT 3-F3           
1 24674U 96070A   26090.83239193 -.00000366  00000+0  00000+0 0  9994
2 24674  10.1529  50.3784 0005739 295.7450 266.8890  0.99991149107138
NAVSTAR 43 (USA 132)    
1 24876U 97035A   26089.92458898  .00000049  00000+0  00000+0 0  9990
2 24876  55.9515 101.6333 0098821  56.1221 304.8623  2.00563939210388
FORTE                   
1 24920U 97047A   26090.68953754  .00000268  00000+0  13132-3 0  9996
2 24920  69.9537 189.0613 0020882  16.7985 343.3824 14.27911209487622
AMC-3                   
1 24936U 97050A   26090.88185014 -.00000268  00000+0  00000+0 0  9992
2 24936   7.9581  64.9545 0003493 313.0040  56.7471  1.00271860 51662
USA 134                 
1 25019U 97065A   26091.13342093 -.00000068  00000+0  00000+0 0  9990
2 25019  12.6943  22.2952 0006534 319.9397 142.8629  1.00270103 32185
ORBCOMM FM06            
1 25118U 97084G   26091.17777227  .00001837  00000+0  53579-3 0  9993
2 25118  45.0138  63.3799 0002671 285.5776  90.6826 14.47351513483238
