[{"OBJECT_NAME":"ITAMSAT (IO-26)","OBJECT_ID":"1993-061D","EPOCH":"2026-04-01T03:43:34.909824","MEAN_MOTION":14.31345428,"ECCENTRICITY":0.0007982,"INCLINATION":98.6885,"RA_OF_ASC_NODE":158.4871,"ARG_OF_PERICENTER":315.1028,"MEAN_ANOMALY":44.9508,"EPHEMERIS_TYPE":0,"CLASSIFICATION_TYPE":"U","NORAD_CAT_ID":22826,"ELEMENT_SET_NO":999,"REV_AT_EPOCH":69629,"BSTAR":8.1031e-5,"MEAN_MOTION_DOT":1.7e-6,"MEAN_MOTION_DDOT":0},{"OBJECT_NAME":"USA 99 (MILSTAR-1 1)","OBJECT_ID":"1994-009A","EPOCH":"2026-04-01T03:21:51.067296","MEAN_MOTION":1.00273148,"ECCENTRICITY":0.0004045,"INCLINATION":17.5042,"RA_OF_ASC_NODE":28.5409,"ARG_OF_PERICENTER":330.898,"MEAN_ANOMALY":150.5466,"EPHEMERIS_TYPE":0,"CLASSIFICATION_TYPE":"U","NORAD_CAT_ID":22988,"ELEMENT_SET_NO":999,"REV_AT_EPOCH":3218,"BSTAR":0,"MEAN_MOTION_DOT":-2.04e-6,"MEAN_MOTION_DDOT":0},{"OBJECT_NAME":"RADIO ROSTO (RS15)","OBJECT_ID":"1994-085A","EPOCH":"2026-04-01T05:20:28.334688","MEAN_MOTION":11.27583791,"ECCENTRICITY":0.0153524,"INCLINATION":64.8159,"RA_OF_ASC_NODE":67.6864,"ARG_OF_PERICENTER":17.8427,"MEAN_ANOMALY":342.7806,"EPHEMERIS_TYPE":0,"CLASSIFICATION_TYPE":"U","NORAD_CAT_ID":23439,"ELEMENT_SET_NO":999,"REV_AT_EPOCH":28722,"BSTAR":-0.00020733,"MEAN_MOTION_DOT":-5.0e-7,"MEAN_MOTION_DDOT":0},{"OBJECT_NAME":"UFO 4 (USA 108)","OBJECT_ID":"1995-003A","EPOCH":"2026-03-31T15:00:38.703744","MEAN_MOTION":1.00268648,"ECCENTRICITY":0.000349,"INCLINATION":9.6936,"RA_OF_ASC_NODE":13.4832,"ARG_OF_PERICENTER":351.3784,"MEAN_ANOMALY":221.7084,"EPHEMERIS_TYPE":0,"CLASSIFICATION_TYPE":"U","NORAD_CAT_ID":23467,"ELEMENT_SET_NO":999,"REV_AT_EPOCH":11417,"BSTAR":0,"MEAN_MOTION_DOT":-3.0e-7,"MEAN_MOTION_DDOT":0},{"OBJECT_NAME":"TDRS 7","OBJECT_ID":"1995-035B","EPOCH":"2026-03-31T19:16:26.412672","MEAN_MOTION":1.00269293,"ECCENTRICITY":0.0009264,"INCLINATION":13.4097,"RA_OF_ASC_NODE":348.7212,"ARG_OF_PERICENTER":54.7626,"MEAN_ANOMALY":163.833,"EPHEMERIS_TYPE":0,"CLASSIFICATION_TYPE":"U","NORAD_CAT_ID":23613,"ELEMENT_SET_NO":999,"REV_AT_EPOCH":11247,"BSTAR":0,"MEAN_MOTION_DOT":-2.47e-6,"MEAN_MOTION_DDOT":0},{"OBJECT_NAME":"USA 115 (MILSTAR-1 2)","OBJECT_ID":"1995-060A","EPOCH":"2026-04-01T03:03:27.221760","MEAN_MOTION":1.00275441,"ECCENTRICITY":0.000396,"INCLINATION":14.0462,"RA_OF_ASC_NODE":4.3226,"ARG_OF_PERICENTER":355.7308,"MEAN_ANOMALY":115.3247,"EPHEMERIS_TYPE":0,"CLASSIFICATION_TYPE":"U","NORAD_CAT_ID":23712,"ELEMENT_SET_NO":999,"REV_AT_EPOCH":3211,"BSTAR":0,"MEAN_MOTION_DOT":-2.8e-7,"MEAN_MOTION_DDOT":0},{"OBJECT_NAME":"POLAR","OBJECT_ID":"1996-013A","EPOCH":"2026-03-31T05:51:59.787072","MEAN_MOTION":1.29845737,"ECCENTRICITY":0.6391582,"INCLINATION":79.7777,"RA_OF_ASC_NODE":227.9483,"ARG_OF_PERICENTER":211.7339,"MEAN_ANOMALY":85.2867,"EPHEMERIS_TYPE":0,"CLASSIFICATION_TYPE":"U","NORAD_CAT_ID":23802,"ELEMENT_SET_NO":999,"REV_AT_EPOCH":14384,"BSTAR":0,"MEAN_MOTION_DOT":7.2e-7,"MEAN_MOTION_DDOT":0},{"OBJECT_NAME":"INMARSAT 3-F1","OBJECT_ID":"1996-020A","EPOCH":"2026-03-31T14:35:06.501696","MEAN_MOTION":1.00000806,"ECCENTRICITY":0.000487,"INCLINATION":10.4417,"RA_OF_ASC_NODE":47.3349,"ARG_OF_PERICENTER":299.6498,"MEAN_ANOMALY":44.3923,"EPHEMERIS_TYPE":0,"CLASSIFICATION_TYPE":"U","NORAD_CAT_ID":23839,"ELEMENT_SET_NO":999,"REV_AT_EPOCH":10947,"BSTAR":0,"MEAN_MOTION_DOT":-1.86e-6,"MEAN_MOTION_DDOT":0},{"OBJECT_NAME":"USA 119","OBJECT_ID":"1996-029A","EPOCH":"2026-04-01T03:38:37.204800","MEAN_MOTION":13.45999063,"ECCENTRICITY":0.0847362,"INCLINATION":63.3228,"RA_OF_ASC_NODE":33.6589,"ARG_OF_PERICENTER":47.9918,"MEAN_ANOMALY":319.0165,"EPHEMERIS_TYPE":0,"CLASSIFICATION_TYPE":"U","NORAD_CAT_ID":23893,"ELEMENT_SET_NO":999,"REV_AT_EPOCH":9490,"BSTAR":0.00065295,"MEAN_MOTION_DOT":3.923e-5,"MEAN_MOTION_DDOT":0},{"OBJECT_NAME":"JAS-2 (FO-29)","OBJECT_ID":"1996-046B","EPOCH":"2026-04-01T02:55:51.957696","MEAN_MOTION":13.53270136,"ECCENTRICITY":0.034897,"INCLINATION":98.5343,"RA_OF_ASC_NODE":310.5037,"ARG_OF_PERICENTER":296.5027,"MEAN_ANOMALY":60.0722,"EPHEMERIS_TYPE":0,"CLASSIFICATION_TYPE":"U","NORAD_CAT_ID":24278,"ELEMENT_SET_NO":999,"REV_AT_EPOCH":46274,"BSTAR":4.3908e-5,"MEAN_MOTION_DOT":5.0e-8,"MEAN_MOTION_DDOT":0},{"OBJECT_NAME":"INMARSAT 3-F2","OBJECT_ID":"1996-053A","EPOCH":"2026-03-31T12:03:38.714688","MEAN_MOTION":0.99983267,"ECCENTRICITY":0.00063746,"INCLINATION":9.6826,"RA_OF_ASC_NODE":54.7124,"ARG_OF_PERICENTER":320.5818,"MEAN_ANOMALY":220.7275,"EPHEMERIS_TYPE":0,"CLASSIFICATION_TYPE":"U","NORAD_CAT_ID":24307,"ELEMENT_SET_NO":999,"REV_AT_EPOCH":10814,"BSTAR":0,"MEAN_MOTION_DOT":8.8e-7,"MEAN_MOTION_DDOT":0},{"OBJECT_NAME":"INMARSAT 3-F3","OBJECT_ID":"1996-070A","EPOCH":"2026-03-31T19:58:38.662752","MEAN_MOTION":0.99991149,"ECCENTRICITY":0.0005739,"INCLINATION":10.1529,"RA_OF_ASC_NODE":50.3784,"ARG_OF_PERICENTER":295.745,"MEAN_ANOMALY":266.889,"EPHEMERIS_TYPE":0,"CLASSIFICATION_TYPE":"U","NORAD_CAT_ID":24674,"ELEMENT_SET_NO":999,"REV_AT_EPOCH":10713,"BSTAR":0,"MEAN_MOTION_DOT":-3.66e-6,"MEAN_MOTION_DDOT":0},{"OBJECT_NAME":"NAVSTAR 43 (USA 132)","OBJECT_ID":"1997-035A","EPOCH":"2026-03-30T22:11:24.487872","MEAN_MOTION":2.00563939,"ECCENTRICITY":0.0098821,"INCLINATION":55.9515,"RA_OF_ASC_NODE":101.6333,"ARG_OF_PERICENTER":56.1221,"MEAN_ANOMALY":304.8623,"EPHEMERIS_TYPE":0,"CLASSIFICATION_TYPE":"U","NORAD_CAT_ID":24876,"ELEMENT_SET_NO":999,"REV_AT_EPOCH":21038,"BSTAR":0,"MEAN_MOTION_DOT":4.9e-7,"MEAN_MOTION_DDOT":0},{"OBJECT_NAME":"FORTE","OBJECT_ID":"1997-047A","EPOCH":"2026-03-31T16:32:56.043456","MEAN_MOTION":14.27911209,"ECCENTRICITY":0.0020882,"INCLINATION":69.9537,"RA_OF_ASC_NODE":189.0613,"ARG_OF_PERICENTER":16.7985,"MEAN_ANOMALY":343.3824,"EPHEMERIS_TYPE":0,"CLASSIFICATION_TYPE":"U","NORAD_CAT_ID":24920,"ELEMENT_SET_NO":999,"REV_AT_EPOCH":48762,"BSTAR":0.00013132,"MEAN_MOTION_DOT":2.68e-6,"MEAN_MOTION_DDOT":0},{"OBJECT_NAME":"AMC-3","OBJECT_ID":"1997-050A","EPOCH":"2026-03-31T21:09:51.852096","MEAN_MOTION":1.0027186,"ECCENTRICITY":0.0003493,"INCLINATION":7.9581,"RA_OF_ASC_NODE":64.9545,"ARG_OF_PERICENTER":313.004,"MEAN_ANOMALY":56.7471,"EPHEMERIS_TYPE":0,"CLASSIFICATION_TYPE":"U","NORAD_CAT_ID":24936,"ELEMENT_SET_NO":999,"REV_AT_EPOCH":5166,"BSTAR":0,"MEAN_MOTION_DOT":-2.68e-6,"MEAN_MOTION_DDOT":0},{"OBJECT_NAME":"USA 134","OBJECT_ID":"1997-065A","EPOCH":"2026-04-01T03:12:07.568352","MEAN_MOTION":1.00270103,"ECCENTRICITY":0.0006534,"INCLINATION":12.6943,"RA_OF_ASC_NODE":22.2952,"ARG_OF_PERICENTER":319.9397,"MEAN_ANOMALY":142.8629,"EPHEMERIS_TYPE":0,"CLASSIFICATION_TYPE":"U","NORAD_CAT_ID":25019,"ELEMENT_SET_NO":999,"REV_AT_EPOCH":3218,"BSTAR":0,"MEAN_MOTION_DOT":-6.8e-7,"MEAN_MOTION_DDOT":0},{"OBJECT_NAME":"ORBCOMM FM06","OBJECT_ID":"1997-084G","EPOCH":"2026-04-01T04:15:59.524128","MEAN_MOTION":14.47351513,"ECCENTRICITY":0.0002671,"INCLINATION":45.0138,"RA_OF_ASC_NODE":63.3799,"ARG_OF_PERICENTER":285.5776,"MEAN_ANOMALY":90.6826,"EPHEMERIS_TYPE":0,"CLASSIFICATION_TYPE":"U","NORAD_CAT_ID":25118,"ELEMENT_SET_NO":999,"REV_AT_EPOCH":48323,"BSTAR":0.00053579,"MEAN_MOTION_DOT":1.837e-5,"MEAN_MOTION_DDOT":0}